{"type": "FeatureCollection", "features": [ {"type": "Feature", "properties": {"norad_id": 30332, "name": "FENGYUN 1C DEB", "group": "fengyun-1c-debris", "lat": -41.984746577365755, "lon": 134.74800505446268, "alt_km": 1070.589120595676, "timestamp": "2025-12-17T23:38:07.129576+00:00", "meta": {"OBJECT_NAME": "FENGYUN 1C DEB", "OBJECT_ID": "1999-025AAT", "EPOCH": "2025-12-17T12:41:54.960576", "MEAN_MOTION": 13.76713771, "ECCENTRICITY": 0.01781489, "INCLINATION": 99.7155, "RA_OF_ASC_NODE": 323.1515, "ARG_OF_PERICENTER": 90.5796, "MEAN_ANOMALY": 33.2455, "EPHEMERIS_TYPE": 0, "CLASSIFICATION_TYPE": "U", "NORAD_CAT_ID": 30332, "ELEMENT_SET_NO": 999, "REV_AT_EPOCH": 94781, "BSTAR": 0.00038289638, "MEAN_MOTION_DOT": 3.77e-06, "MEAN_MOTION_DDOT": 0}, "tle": {"line1": "1 30332U 99025AAT 25351.52910834  .00000377  00000+0  38290-3 0  9995", "line2": "2 30332  99.7155 323.1515 0178148  90.5796  33.2455 13.76713771947818"}}, "geometry": {"type": "Point", "coordinates": [134.74800505446268, -41.984746577365755]}}, {"type": "Feature", "properties": {"norad_id": 30334, "name": "FENGYUN 1C DEB", "group": "fengyun-1c-debris", "lat": 70.47332116942506, "lon": -61.958188350471794, "alt_km": 993.5157164482944, "timestamp": "2025-12-17T23:38:07.129587+00:00", "meta": {"OBJECT_NAME": "FENGYUN 1C DEB", "OBJECT_ID": "1999-025AAV", "EPOCH": "2025-12-17T04:27:52.768224", "MEAN_MOTION": 13.92390861, "ECCENTRICITY": 0.01447416, "INCLINATION": 99.0213, "RA_OF_ASC_NODE": 90.6514, "ARG_OF_PERICENTER": 329.6807, "MEAN_ANOMALY": 94.8158, "EPHEMERIS_TYPE": 0, "CLASSIFICATION_TYPE": "U", "NORAD_CAT_ID": 30334, "ELEMENT_SET_NO": 999, "REV_AT_EPOCH": 95283, "BSTAR": 0.00096096479, "MEAN_MOTION_DOT": 1.302e-05, "MEAN_MOTION_DDOT": 0}, "tle": {"line1": "1 30334U 99025AAV 25351.18602741  .00001302  00000+0  96096-3 0  9991", "line2": "2 30334  99.0213  90.6514 0144741 329.6807  94.8158 13.92390861952834"}}, "geometry": {"type": "Point", "coordinates": [-61.958188350471794, 70.47332116942506]}}, {"type": "Feature", "properties": {"norad_id": 30335, "name": "FENGYUN 1C DEB", "group": "fengyun-1c-debris", "lat": 53.34803061905467, "lon": 175.31746817605193, "alt_km": 788.3986536576585, "timestamp": "2025-12-17T23:38:07.129597+00:00", "meta": {"OBJECT_NAME": "FENGYUN 1C DEB", "OBJECT_ID": "1999-025AAW", "EPOCH": "2025-12-17T11:40:02.185824", "MEAN_MOTION": 14.01362024, "ECCENTRICITY": 0.01330359, "INCLINATION": 98.9047, "RA_OF_ASC_NODE": 342.6674, "ARG_OF_PERICENTER": 118.3304, "MEAN_ANOMALY": 12.7309, "EPHEMERIS_TYPE": 0, "CLASSIFICATION_TYPE": "U", "NORAD_CAT_ID": 30335, "ELEMENT_SET_NO": 999, "REV_AT_EPOCH": 96657, "BSTAR": 1.3285406e-05, "MEAN_MOTION_DOT": -2e-07, "MEAN_MOTION_DDOT": 0}, "tle": {"line1": "1 30335U 99025AAW 25351.48613641 -.00000020  00000+0  13285-4 0  9993", "line2": "2 30335  98.9047 342.6674 0133035 118.3304  12.7309 14.01362024966578"}}, "geometry": {"type": "Point", "coordinates": [175.31746817605193, 53.34803061905467]}}, {"type": "Feature", "properties": {"norad_id": 30336, "name": "FENGYUN 1C DEB", "group": "fengyun-1c-debris", "lat": -51.16276772292355, "lon": 23.615217721703427, "alt_km": 812.574504077068, "timestamp": "2025-12-17T23:38:07.129607+00:00", "meta": {"OBJECT_NAME": "FENGYUN 1C DEB", "OBJECT_ID": "1999-025AAX", "EPOCH": "2025-12-17T14:18:40.209408", "MEAN_MOTION": 14.19312532, "ECCENTRICITY": 0.00432875, "INCLINATION": 98.6001, "RA_OF_ASC_NODE": 12.4037, "ARG_OF_PERICENTER": 354.5565, "MEAN_ANOMALY": 129.9334, "EPHEMERIS_TYPE": 0, "CLASSIFICATION_TYPE": "U", "NORAD_CAT_ID": 30336, "ELEMENT_SET_NO": 999, "REV_AT_EPOCH": 97671, "BSTAR": 0.00029847094, "MEAN_MOTION_DOT": 5.9e-06, "MEAN_MOTION_DDOT": 0}, "tle": {"line1": "1 30336U 99025AAX 25351.59629872  .00000590  00000+0  29847-3 0  9990", "line2": "2 30336  98.6001  12.4037 0043287 354.5565 129.9334 14.19312532976717"}}, "geometry": {"type": "Point", "coordinates": [23.615217721703427, -51.16276772292355]}}, {"type": "Feature", "properties": {"norad_id": 30338, "name": "FENGYUN 1C DEB", "group": "fengyun-1c-debris", "lat": 37.66081779954017, "lon": -111.7014286457324, "alt_km": 572.8245540487715, "timestamp": "2025-12-17T23:38:07.129617+00:00", "meta": {"OBJECT_NAME": "FENGYUN 1C DEB", "OBJECT_ID": "1999-025AAZ", "EPOCH": "2025-12-17T11:26:17.895264", "MEAN_MOTION": 14.47581715, "ECCENTRICITY": 0.02720721, "INCLINATION": 98.4597, "RA_OF_ASC_NODE": 61.1938, "ARG_OF_PERICENTER": 179.5082, "MEAN_ANOMALY": 197.1792, "EPHEMERIS_TYPE": 0, "CLASSIFICATION_TYPE": "U", "NORAD_CAT_ID": 30338, "ELEMENT_SET_NO": 999, "REV_AT_EPOCH": 98213, "BSTAR": 0.0008463595, "MEAN_MOTION_DOT": 4.919e-05, "MEAN_MOTION_DDOT": 0}, "tle": {"line1": "1 30338U 99025AAZ 25351.47659601  .00004919  00000+0  84636-3 0  9998", "line2": "2 30338  98.4597  61.1938 0272072 179.5082 197.1792 14.47581715982133"}}, "geometry": {"type": "Point", "coordinates": [-111.7014286457324, 37.66081779954017]}}, {"type": "Feature", "properties": {"norad_id": 30339, "name": "FENGYUN 1C DEB", "group": "fengyun-1c-debris", "lat": -11.506954380212004, "lon": -83.19641517534292, "alt_km": 776.3239219355855, "timestamp": "2025-12-17T23:38:07.129628+00:00", "meta": {"OBJECT_NAME": "FENGYUN 1C DEB", "OBJECT_ID": "1999-025ABA", "EPOCH": "2025-12-17T06:18:03.627072", "MEAN_MOTION": 14.38227259, "ECCENTRICITY": 0.00198229, "INCLINATION": 98.9743, "RA_OF_ASC_NODE": 97.8929, "ARG_OF_PERICENTER": 70.6733, "MEAN_ANOMALY": 343.1838, "EPHEMERIS_TYPE": 0, "CLASSIFICATION_TYPE": "U", "NORAD_CAT_ID": 30339, "ELEMENT_SET_NO": 999, "REV_AT_EPOCH": 97492, "BSTAR": 0.0019437645, "MEAN_MOTION_DOT": 5.876e-05, "MEAN_MOTION_DDOT": 0}, "tle": {"line1": "1 30339U 99025ABA 25351.26254198  .00005876  00000+0  19438-2 0  9998", "line2": "2 30339  98.9743  97.8929 0019822  70.6733 343.1838 14.38227259974926"}}, "geometry": {"type": "Point", "coordinates": [-83.19641517534292, -11.506954380212004]}}, {"type": "Feature", "properties": {"norad_id": 30340, "name": "FENGYUN 1C DEB", "group": "fengyun-1c-debris", "lat": 35.21616129494191, "lon": -124.90990815374968, "alt_km": 778.1483856958857, "timestamp": "2025-12-17T23:38:07.129638+00:00", "meta": {"OBJECT_NAME": "FENGYUN 1C DEB", "OBJECT_ID": "1999-025ABB", "EPOCH": "2025-12-17T15:01:35.231808", "MEAN_MOTION": 14.04598833, "ECCENTRICITY": 0.01462203, "INCLINATION": 99.0004, "RA_OF_ASC_NODE": 48.3113, "ARG_OF_PERICENTER": 121.3623, "MEAN_ANOMALY": 9.3546, "EPHEMERIS_TYPE": 0, "CLASSIFICATION_TYPE": "U", "NORAD_CAT_ID": 30340, "ELEMENT_SET_NO": 999, "REV_AT_EPOCH": 96849, "BSTAR": 0.00027940452, "MEAN_MOTION_DOT": 4.48e-06, "MEAN_MOTION_DDOT": 0}, "tle": {"line1": "1 30340U 99025ABB 25351.62610222  .00000448  00000+0  27940-3 0  9992", "line2": "2 30340  99.0004  48.3113 0146220 121.3623   9.3546 14.04598833968495"}}, "geometry": {"type": "Point", "coordinates": [-124.90990815374968, 35.21616129494191]}}, {"type": "Feature", "properties": {"norad_id": 30341, "name": "FENGYUN 1C DEB", "group": "fengyun-1c-debris", "lat": -7.611930498387001, "lon": 59.12144281190356, "alt_km": 811.7354723336584, "timestamp": "2025-12-17T23:38:07.129648+00:00", "meta": {"OBJECT_NAME": "FENGYUN 1C DEB", "OBJECT_ID": "1999-025ABC", "EPOCH": "2025-12-16T15:15:40.495968", "MEAN_MOTION": 14.34159201, "ECCENTRICITY": 0.00512322, "INCLINATION": 99.2185, "RA_OF_ASC_NODE": 238.9278, "ARG_OF_PERICENTER": 46.2152, "MEAN_ANOMALY": 20.4803, "EPHEMERIS_TYPE": 0, "CLASSIFICATION_TYPE": "U", "NORAD_CAT_ID": 30341, "ELEMENT_SET_NO": 999, "REV_AT_EPOCH": 97137, "BSTAR": 0.0023643512, "MEAN_MOTION_DOT": 6.677e-05, "MEAN_MOTION_DDOT": 0}, "tle": {"line1": "1 30341U 99025ABC 25350.63588537  .00006677  00000+0  23644-2 0  9992", "line2": "2 30341  99.2185 238.9278 0051232  46.2152  20.4803 14.34159201971373"}}, "geometry": {"type": "Point", "coordinates": [59.12144281190356, -7.611930498387001]}}, {"type": "Feature", "properties": {"norad_id": 30342, "name": "FENGYUN 1C DEB", "group": "fengyun-1c-debris", "lat": 55.27724556054425, "lon": 156.81889882523944, "alt_km": 881.824934834669, "timestamp": "2025-12-17T23:38:07.129658+00:00", "meta": {"OBJECT_NAME": "FENGYUN 1C DEB", "OBJECT_ID": "1999-025ABD", "EPOCH": "2025-12-17T11:19:29.333856", "MEAN_MOTION": 13.80050842, "ECCENTRICITY": 0.01683239, "INCLINATION": 100.1955, "RA_OF_ASC_NODE": 171.3171, "ARG_OF_PERICENTER": 110.5184, "MEAN_ANOMALY": 280.637, "EPHEMERIS_TYPE": 0, "CLASSIFICATION_TYPE": "U", "NORAD_CAT_ID": 30342, "ELEMENT_SET_NO": 999, "REV_AT_EPOCH": 94954, "BSTAR": 0.00057143907, "MEAN_MOTION_DOT": 6.11e-06, "MEAN_MOTION_DDOT": 0}, "tle": {"line1": "1 30342U 99025ABD 25351.47186729  .00000611  00000+0  57144-3 0  9998", "line2": "2 30342 100.1955 171.3171 0168323 110.5184 280.6370 13.80050842949547"}}, "geometry": {"type": "Point", "coordinates": [156.81889882523944, 55.27724556054425]}}, {"type": "Feature", "properties": {"norad_id": 30344, "name": "FENGYUN 1C DEB", "group": "fengyun-1c-debris", "lat": 56.909089375066614, "lon": 60.51752092443892, "alt_km": 710.6446474455834, "timestamp": "2025-12-17T23:38:07.129668+00:00", "meta": {"OBJECT_NAME": "FENGYUN 1C DEB", "OBJECT_ID": "1999-025ABF", "EPOCH": "2025-12-17T11:52:28.479648", "MEAN_MOTION": 14.51842909, "ECCENTRICITY": 0.00074225, "INCLINATION": 98.8208, "RA_OF_ASC_NODE": 73.7886, "ARG_OF_PERICENTER": 108.2107, "MEAN_ANOMALY": 270.1531, "EPHEMERIS_TYPE": 0, "CLASSIFICATION_TYPE": "U", "NORAD_CAT_ID": 30344, "ELEMENT_SET_NO": 999, "REV_AT_EPOCH": 98146, "BSTAR": 0.0018284539, "MEAN_MOTION_DOT": 7.322e-05, "MEAN_MOTION_DDOT": 0}, "tle": {"line1": "1 30344U 99025ABF 25351.49477407  .00007322  00000+0  18285-2 0  9996", "line2": "2 30344  98.8208  73.7886 0007422 108.2107 270.1531 14.51842909981464"}}, "geometry": {"type": "Point", "coordinates": [60.51752092443892, 56.909089375066614]}}]}